IRIDIUM 126             
1 42809U 17039G   24305.83715463  .00000987  00000+0  34546-3 0  9992
2 42809  86.3973 241.5459 0002327  90.7365 269.4097 14.34223920384906
IRIDIUM 124             
1 42810U 17039H   24305.58040812  .00001230  00000+0  35989-3 0  9999
2 42810  86.4549 178.4897 0002231  75.2384 284.9064 14.43265005389490
IRIDIUM 128             
1 42811U 17039J   24305.82789551  .00001168  00000+0  41011-3 0  9990
2 42811  86.3925 273.0843 0002348  89.7221 270.4244 14.34215316384934
IRIDIUM 121             
1 42812U 17039K   24305.85619070  .00002108  00000+0  74562-3 0  9994
2 42812  86.3978 241.5611 0002247  82.3129 277.8322 14.34217040384901
IRIDIUM 133             
1 42955U 17061A   24306.20844966  .00000471  00000+0  16106-3 0  9992
2 42955  86.3923 273.0280 0002156  87.4707 272.6736 14.34221685369789
IRIDIUM 122             
1 42957U 17061C   24305.89132569  .00000572  00000+0  19725-3 0  9999
2 42957  86.3920 273.0912 0002453  88.8267 271.3210 14.34213748369746
IRIDIUM 129             
1 42958U 17061D   24305.84692394  .00000354  00000+0  11939-3 0  9999
2 42958  86.3923 273.1710 0002089  90.9465 269.1970 14.34212180369754
